OBJECT_NAME,OBJECT_ID,EPOCH,MEAN_MOTION,ECCENTRICITY,INCLINATION,RA_OF_ASC_NODE,ARG_OF_PERICENTER,MEAN_ANOMALY,EPHEMERIS_TYPE,CLASSIFICATION_TYPE,NORAD_CAT_ID,ELEMENT_SET_NO,REV_AT_EPOCH,BSTAR,MEAN_MOTION_DOT,MEAN_MOTION_DDOT
CUBEBUG-2 (LO-74),2013-066AA,2026-07-20T19:42:33.357888,14.93990306,.0055527,97.8921,150.9507,276.2842,83.2055,0,U,39440,999,68201,.17745E-3,.1885E-4,0
FUNCUBE-1 (AO-73),2013-066AE,2026-07-20T20:37:53.259744,15.09868744,.0038088,97.8300,174.0216,89.2835,271.2758,0,U,39444,999,68474,.33755E-3,.549E-4,0
UWE-3,2013-066AG,2026-07-20T20:00:50.878080,14.97225341,.0047714,97.8725,158.1433,205.2045,154.6848,0,U,39446,999,68261,.2191E-3,.2531E-4,0
UNISAT-6,2014-033C,2026-07-20T16:21:20.856960,14.88379652,.0043771,97.7917,353.8140,319.3507,40.4445,0,U,40012,999,65114,.12893E-3,.1158E-4,0
DUCHIFAT-1,2014-033M,2026-07-20T18:33:43.068960,15.72127670,.0003439,98.0408,265.8557,229.1155,130.9809,0,U,40021,999,66101,.81365E-3,.107775E-2,0
QB50P1,2014-033R,2026-07-20T11:50:15.612864,15.18713788,.00105298,98.0973,214.9866,109.2595,250.9778,0,U,40025,999,65808,.22433766E-3,.4584E-4,0
LILACSAT-2,2015-049K,2026-07-20T20:44:03.632352,15.52489651,.0008635,97.4628,240.0044,124.9687,235.2378,0,U,40908,999,60097,.22271E-3,.13558E-3,0
FOX-1A (AO-85),2015-058D,2026-07-20T06:49:54.830496,14.91108157,.01327836,64.7727,176.1140,43.8857,317.2710,0,U,40967,999,11850,.1792955E-3,.1929E-4,0
CAS-2T & KS-1Q,2016-066G,2026-07-20T19:55:07.119264,14.44776648,.0341953,98.3810,277.1812,27.6850,334.2092,0,U,41847,999,50965,.78947E-4,.501E-5,0
RADFXSAT (FOX-1B),2017-073E,2026-07-20T03:29:03.135552,15.13099239,.01484485,97.4661,67.6884,214.2207,144.9390,0,U,43017,999,47037,.14349287E-3,.3253E-4,0
DIWATA-2B,2018-084H,2026-07-20T20:17:42.323136,15.00575137,.0012528,98.1220,39.5289,66.7928,293.4613,0,U,43678,999,42126,.79875E-4,.944E-5,0
ES'HAIL 2,2018-090A,2026-07-20T08:07:04.463904,1.00274071,.00024517,0.0208,80.1003,77.6851,287.8888,0,U,43700,999,2800,0,.143E-5,0
FOX-1CLIFF (AO-95),2018-099N,2026-07-20T16:38:29.042016,15.27341494,.0007726,97.4361,261.8279,217.8833,142.1863,0,U,43770,999,41833,.24842E-3,.6582E-4,0
ITASAT,2018-099AE,2026-07-20T09:57:04.443264,15.19417487,.00111874,97.4007,252.2679,230.0239,130.0014,0,U,43786,999,41795,.17496143E-3,.3642E-4,0
JY1SAT (JO-97),2018-099AX,2026-07-20T19:35:36.695616,15.34633292,.0007261,97.4107,264.7878,141.3682,218.8082,0,U,43803,999,41878,.36756E-3,.12271E-3,0
UWE-4,2018-111E,2026-07-20T18:46:45.439104,15.48042440,.0007026,97.5826,131.7716,173.9264,186.2072,0,U,43880,999,41597,.41741E-3,.21799E-3,0
TIANYAN 01,2019-093C,2026-07-20T20:02:30.080832,14.86567164,.0013035,97.7512,273.2447,342.9580,17.1196,0,U,44881,999,35641,.99548E-4,.83E-5,0
RS-44 & BREEZE-KM R/B,2019-096E,2026-07-20T20:34:31.613376,12.79748835,.0218407,82.5240,317.3331,65.8142,296.5620,0,U,44909,999,30665,-.38551E-4,.3E-7,0
SALSAT,2020-068K,2026-07-19T23:26:01.225248,15.30211220,.00097251,97.8865,206.0496,176.0322,184.0997,0,U,46495,999,32037,.14328943E-3,.4107E-4,0
XW-3 (CAS-9),2021-131B,2026-07-20T20:40:24.643776,14.41384357,.0004206,98.4983,294.0697,15.8383,344.2937,0,U,50466,999,23996,.7466E-4,.198E-5,0
GREENCUBE (IO-117),2022-080E,2026-07-20T04:18:04.419648,6.42583323,.00090888,70.1400,286.7734,282.4177,77.5466,0,U,53109,999,9418,0,-.3E-7,0
UMKA 1 (RS40S),2023-091G,2026-07-20T20:14:07.736640,15.21158333,.0012458,97.5028,260.4152,10.5246,349.6247,0,U,57172,999,16912,.17505E-3,.3836E-4,0
CUBESX-HSE 3 (RS42S),2023-091N,2026-07-20T19:40:38.667072,15.31966801,.0009121,97.5069,267.8477,340.7248,19.3647,0,U,57178,999,16957,.28479E-3,.8721E-4,0
MONITOR-3 (RS58S),2023-091Q,2026-07-20T20:31:04.565280,15.28437046,.0010379,97.5060,265.5593,349.2247,10.8768,0,U,57180,999,16943,.25634E-3,.703E-4,0
MONITOR-4 (RS57S),2023-091S,2026-07-20T19:58:12.448128,15.28524570,.0010399,97.5055,265.5093,349.4982,10.6038,0,U,57182,999,16943,.2499E-3,.6869E-4,0
MONITOR-2 (RS39S),2023-091U,2026-07-20T13:52:27.355296,15.19181799,.00108415,97.5051,259.6477,5.8430,354.2929,0,U,57184,999,16902,.13517128E-3,.2777E-4,0
SVYATOBOR 1 (RS60S),2023-091X,2026-07-20T13:08:30.463584,15.27113459,.00081891,97.5068,265.5579,344.8418,15.2574,0,U,57187,999,16940,.18685513E-3,.4897E-4,0
VIZARD-METEO (RS38S),2023-091Z,2026-07-20T13:20:27.795264,15.36974769,.00052528,97.5070,271.7311,316.2911,43.7917,0,U,57189,999,16981,.27943907E-3,.10028E-3,0
POLYTECH-UNIVERSE 3 (RS46S),2023-091AB,2026-07-20T14:25:02.292672,15.19395065,.00155598,97.5027,259.1744,19.6422,340.5409,0,U,57191,999,16902,.12748181E-3,.2636E-4,0
UTMN 2 (RS27S),2023-091AP,2026-07-20T13:23:54.113280,15.32776118,.00062618,97.5066,269.2568,328.7107,31.3762,0,U,57203,999,16965,.23155721E-3,.7253E-4,0
