CUBEBUG-2 (LO-74)       
1 39440U 13066AA  26201.82121942  .00001885  00000+0  17745-3 0  9994
2 39440  97.8921 150.9507 0055527 276.2842  83.2055 14.93990306682014
FUNCUBE-1 (AO-73)       
1 39444U 13066AE  26201.85964421  .00005490  00000+0  33755-3 0  9993
2 39444  97.8300 174.0216 0038088  89.2835 271.2758 15.09868744684749
UWE-3                   
1 39446U 13066AG  26201.83392220  .00002531  00000+0  21910-3 0  9998
2 39446  97.8725 158.1433 0047714 205.2045 154.6848 14.97225341682619
UNISAT-6                
1 40012U 14033C   26201.68149140  .00001158  00000+0  12893-3 0  9992
2 40012  97.7917 353.8140 0043771 319.3507  40.4445 14.88379652651144
DUCHIFAT-1              
1 40021U 14033M   26201.77341515  .00107775  00000+0  81365-3 0  9994
2 40021  98.0408 265.8557 0003439 229.1155 130.9809 15.72127670661012
QB50P1                  
1 40025U 14033R   26201.49323626  .00004584  00000+0  22434-3 0  9996
2 40025  98.0973 214.9866 0010529 109.2595 250.9778 15.18713788658087
LILACSAT-2              
1 40908U 15049K   26201.86393093  .00013558  00000+0  22271-3 0  9990
2 40908  97.4628 240.0044 0008635 124.9687 235.2378 15.52489651600970
FOX-1A (AO-85)          
1 40967U 15058D   26201.28466239  .00001929  00000+0  17930-3 0  9999
2 40967  64.7727 176.1140 0132783  43.8857 317.2710 14.91108157118503
CAS-2T & KS-1Q          
1 41847U 16066G   26201.82994351  .00000501  00000+0  78947-4 0  9999
2 41847  98.3810 277.1812 0341953  27.6850 334.2092 14.44776648509655
RADFXSAT (FOX-1B)       
1 43017U 17073E   26201.14517518  .00003253  00000+0  14349-3 0  9992
2 43017  97.4661  67.6884 0148448 214.2207 144.9390 15.13099239470379
DIWATA-2B               
1 43678U 18084H   26201.84562874  .00000944  00000+0  79875-4 0  9990
2 43678  98.1220  39.5289 0012528  66.7928 293.4613 15.00575137421261
ES'HAIL 2               
1 43700U 18090A   26201.33824611  .00000143  00000+0  00000+0 0  9997
2 43700   0.0208  80.1003 0002451  77.6851 287.8888  1.00274071 28005
FOX-1CLIFF (AO-95)      
1 43770U 18099N   26201.69339169  .00006582  00000+0  24842-3 0  9998
2 43770  97.4361 261.8279 0007726 217.8833 142.1863 15.27341494418336
ITASAT                  
1 43786U 18099AE  26201.41463476  .00003642  00000+0  17496-3 0  9995
2 43786  97.4007 252.2679 0011187 230.0239 130.0014 15.19417487417959
JY1SAT (JO-97)          
1 43803U 18099AX  26201.81639694  .00012271  00000+0  36756-3 0  9994
2 43803  97.4107 264.7878 0007261 141.3682 218.8082 15.34633292418786
UWE-4                   
1 43880U 18111E   26201.78247036  .00021799  00000+0  41741-3 0  9990
2 43880  97.5826 131.7716 0007026 173.9264 186.2072 15.48042440415979
TIANYAN 01              
1 44881U 19093C   26201.83507038  .00000830  00000+0  99548-4 0  9991
2 44881  97.7512 273.2447 0013035 342.9580  17.1196 14.86567164356412
RS-44 & BREEZE-KM R/B   
1 44909U 19096E   26201.85731034  .00000003  00000+0 -38551-4 0  9992
2 44909  82.5240 317.3331 0218407  65.8142 296.5620 12.79748835306652
SALSAT                  
1 46495U 20068K   26200.97640307  .00004107  00000+0  14329-3 0  9993
2 46495  97.8865 206.0496 0009725 176.0322 184.0997 15.30211220320374
XW-3 (CAS-9)            
1 50466U 21131B   26201.86139634  .00000198  00000+0  74660-4 0  9994
2 50466  98.4983 294.0697 0004206  15.8383 344.2937 14.41384357239962
GREENCUBE (IO-117)      
1 53109U 22080E   26201.17921782 -.00000003  00000+0  00000+0 0  9990
2 53109  70.1400 286.7734 0009088 282.4177  77.5466  6.42583323 94188
UMKA 1 (RS40S)          
1 57172U 23091G   26201.84314510  .00003836  00000+0  17505-3 0  9994
2 57172  97.5028 260.4152 0012458  10.5246 349.6247 15.21158333169129
CUBESX-HSE 3 (RS42S)    
1 57178U 23091N   26201.81989198  .00008721  00000+0  28479-3 0  9997
2 57178  97.5069 267.8477 0009121 340.7248  19.3647 15.31966801169576
MONITOR-3 (RS58S)       
1 57180U 23091Q   26201.85491395  .00007030  00000+0  25634-3 0  9993
2 57180  97.5060 265.5593 0010379 349.2247  10.8768 15.28437046169439
MONITOR-4 (RS57S)       
1 57182U 23091S   26201.83208852  .00006869  00000+0  24990-3 0  9990
2 57182  97.5055 265.5093 0010399 349.4982  10.6038 15.28524570169437
MONITOR-2 (RS39S)       
1 57184U 23091U   26201.57809439  .00002777  00000+0  13517-3 0  9998
2 57184  97.5051 259.6477 0010841   5.8430 354.2929 15.19181799169021
SVYATOBOR 1 (RS60S)     
1 57187U 23091X   26201.54757481  .00004897  00000+0  18686-3 0  9994
2 57187  97.5068 265.5579 0008189 344.8418  15.2574 15.27113459169404
VIZARD-METEO (RS38S)    
1 57189U 23091Z   26201.55587726  .00010028  00000+0  27944-3 0  9990
2 57189  97.5070 271.7311 0005252 316.2911  43.7917 15.36974769169812
POLYTECH-UNIVERSE 3 (R*)
1 57191U 23091AB  26201.60072098  .00002636  00000+0  12748-3 0  9992
2 57191  97.5027 259.1744 0015559  19.6422 340.5409 15.19395065169023
UTMN 2 (RS27S)          
1 57203U 23091AP  26201.55826520  .00007253  00000+0  23156-3 0  9992
2 57203  97.5066 269.2568 0006261 328.7107  31.3762 15.32776118169653
